$$SOE
2460728.500000000, A.D. 2025-Feb-22 00:00:00.0000, 2.493309453997116E+07, -3.126552392802284E+08, -1.230842701917131E+07,
2460735.500000000, A.D. 2025-Mar-01 00:00:00.0000, 3.536672426042222E+07, -3.159317321402672E+08, -1.146734776983149E+07,
2460742.500000000, A.D. 2025-Mar-08 00:00:00.0000, 4.574712028128722E+07, -3.187318014302040E+08, -1.060896444828632E+07,
2460749.500000000, A.D. 2025-Mar-15 00:00:00.0000, 5.606119807889488E+07, -3.210691718609118E+08, -9.735170311744168E+06,
2460756.500000000, A.D. 2025-Mar-22 00:00:00.0000, 6.629686296892809E+07, -3.229569704868754E+08, -8.847735894129187E+06,
2460763.500000000, A.D. 2025-Mar-29 00:00:00.0000, 7.644289575422640E+07, -3.244077541487446E+08, -7.948321095870405E+06,
2460770.500000000, A.D. 2025-Apr-05 00:00:00.0000, 8.648885329597248E+07, -3.254335370332360E+08, -7.038486142304569E+06,
2460777.500000000, A.D. 2025-Apr-12 00:00:00.0000, 9.642498033307643E+07, -3.260458176324627E+08, -6.119701363615185E+06,
2460784.500000000, A.D. 2025-Apr-19 00:00:00.0000, 1.062421308539134E+08, -3.262556055371979E+08, -5.193355974181607E+06,
2460791.500000000, A.D. 2025-Apr-26 00:00:00.0000, 1.159316979905631E+08, -3.260734479488612E+08, -4.260766002169102E+06,
2460798.500000000, A.D. 2025-May-03 00:00:00.0000, 1.254855514249081E+08, -3.255094556708099E+08, -3.323181475191668E+06,
2460805.500000000, A.D. 2025-May-10 00:00:00.0000, 1.348959813628833E+08, -3.245733284237966E+08, -2.381792950008690E+06,
2460812.500000000, A.D. 2025-May-17 00:00:00.0000, 1.441556482726653E+08, -3.232743794367440E+08, -1.437737469263881E+06,
2460819.500000000, A.D. 2025-May-24 00:00:00.0000, 1.532575378315542E+08, -3.216215593225641E+08, -4.921040329234749E+05,
2460826.500000000, A.D. 2025-May-31 00:00:00.0000, 1.621949208624250E+08, -3.196234789165930E+08, 4.540613435005844E+05,
2460833.500000000, A.D. 2025-Jun-07 00:00:00.0000, 1.709613173000187E+08, -3.172884298811675E+08, 1.399751066449478E+06,
2460840.500000000, A.D. 2025-Jun-14 00:00:00.0000, 1.795504613348694E+08, -3.146244037621790E+08, 2.343992012096301E+06,
2460847.500000000, A.D. 2025-Jun-21 00:00:00.0000, 1.879562685313392E+08, -3.116391127987014E+08, 3.285841761958763E+06,
2460854.500000000, A.D. 2025-Jun-28 00:00:00.0000, 1.961728076870031E+08, -3.083400107690289E+08, 4.224384845047861E+06,
2460861.500000000, A.D. 2025-Jul-05 00:00:00.0000, 2.041942755993206E+08, -3.047343117826366E+08, 5.158729268415704E+06,
2460868.500000000, A.D. 2025-Jul-12 00:00:00.0000, 2.120149732625257E+08, -3.008290078967937E+08, 6.088003350099385E+06,
2460875.500000000, A.D. 2025-Jul-19 00:00:00.0000, 2.196292834255606E+08, -2.966308862061642E+08, 7.011352763515636E+06,
2460882.500000000, A.D. 2025-Jul-26 00:00:00.0000, 2.270316494884503E+08, -2.921465455333995E+08, 7.927937745016068E+06,
2460889.500000000, A.D. 2025-Aug-02 00:00:00.0000, 2.342165555943282E+08, -2.873824127694271E+08, 8.836930437717915E+06,
2460896.500000000, A.D. 2025-Aug-09 00:00:00.0000, 2.411785077543243E+08, -2.823447589481206E+08, 9.737512347058311E+06,
2460903.500000000, A.D. 2025-Aug-16 00:00:00.0000, 2.479120159166226E+08, -2.770397151892076E+08, 1.062887187589872E+07,
2460910.500000000, A.D. 2025-Aug-23 00:00:00.0000, 2.544115771267672E+08, -2.714732885673878E+08, 1.151020189533676E+07,
2460917.500000000, A.D. 2025-Aug-30 00:00:00.0000, 2.606716599791910E+08, -2.656513772765546E+08, 1.238069736302657E+07,
2460924.500000000, A.D. 2025-Sep-06 00:00:00.0000, 2.666866888222827E+08, -2.595797841802838E+08, 1.323955318583611E+07,
2460931.500000000, A.D. 2025-Sep-13 00:00:00.0000, 2.724510259310904E+08, -2.532642313258626E+08, 1.408596226243469E+07,
2460938.500000000, A.D. 2025-Sep-20 00:00:00.0000, 2.779589548117704E+08, -2.467103771612190E+08, 1.491911325650148E+07,
2460945.500000000, A.D. 2025-Sep-27 00:00:00.0000, 2.832046655959895E+08, -2.399238334435260E+08, 1.573818824368504E+07,
2460952.500000000, A.D. 2025-Oct-04 00:00:00.0000, 2.881822404144980E+08, -2.329101814085905E+08, 1.654236044773300E+07,
2460959.500000000, A.D. 2025-Oct-11 00:00:00.0000, 2.928856382861931E+08, -2.256749882596715E+08, 1.733079200928257E+07,
2460966.500000000, A.D. 2025-Oct-18 00:00:00.0000, 2.973086797203533E+08, -2.182238243742924E+08, 1.810263172492480E+07,
2460973.500000000, A.D. 2025-Oct-25 00:00:00.0000, 3.014450310894622E+08, -2.105622813530481E+08, 1.885701273044685E+07,
2460980.500000000, A.D. 2025-Nov-01 00:00:00.0000, 3.052881887331188E+08, -2.026959910432320E+08, 1.959305011135265E+07,
2460987.500000000, A.D. 2025-Nov-08 00:00:00.0000, 3.088314627505384E+08, -1.946306457324584E+08, 2.030983841972870E+07,
2460994.500000000, A.D. 2025-Nov-15 00:00:00.0000, 3.120679605534759E+08, -1.863720197511486E+08, 2.100644906284545E+07,
2461001.500000000, A.D. 2025-Nov-22 00:00:00.0000, 3.149905705096591E+08, -1.779259924625052E+08, 2.168192752748126E+07,
2461008.500000000, A.D. 2025-Nov-29 00:00:00.0000, 3.175919454581479E+08, -1.692985717292228E+08, 2.233529052987611E+07,
2461015.500000000, A.D. 2025-Dec-06 00:00:00.0000, 3.198644837577145E+08, -1.604959182500360E+08, 2.296552327173898E+07,
2461022.500000000, A.D. 2025-Dec-13 00:00:00.0000, 3.218003082388747E+08, -1.515243744250614E+08, 2.357157646744744E+07,
2461029.500000000, A.D. 2025-Dec-20 00:00:00.0000, 3.233912464936734E+08, -1.423904970483259E+08, 2.415236288414571E+07,
2461036.500000000, A.D. 2025-Dec-27 00:00:00.0000, 3.246288113815641E+08, -1.331010916017513E+08, 2.470675368290164E+07,
2461043.500000000, A.D. 2026-Jan-03 00:00:00.0000, 3.255041802556553E+08, -1.236632491846853E+08, 2.523357462135201E+07,
2461050.500000000, A.D. 2026-Jan-10 00:00:00.0000, 3.260081729955394E+08, -1.140843872359760E+08, 2.573160202767101E+07,
2461057.500000000, A.D. 2026-Jan-17 00:00:00.0000, 3.261312290739468E+08, -1.043722946871608E+08, 2.619955849100097E+07,
2461064.500000000, A.D. 2026-Jan-24 00:00:00.0000, 3.258633837549851E+08, -9.453518215207374E+07, 2.663610823585656E+07,
2461071.500000000, A.D. 2026-Jan-31 00:00:00.0000, 3.251942435006541E+08, -8.458173788391826E+07, 2.703985214970001E+07,
2461078.500000000, A.D. 2026-Feb-07 00:00:00.0000, 3.241129607425734E+08, -7.452119039414479E+07, 2.740932242439897E+07,
2461085.500000000, A.D. 2026-Feb-14 00:00:00.0000, 3.226082084175550E+08, -6.436337871712029E+07, 2.774297675611873E+07,
2461092.500000000, A.D. 2026-Feb-21 00:00:00.0000, 3.206681548645421E+08, -5.411883085867082E+07, 2.803919208171464E+07,
2461099.500000000, A.D. 2026-Feb-28 00:00:00.0000, 3.182804383062542E+08, -4.379885055742669E+07, 2.829625801261479E+07,
2461106.500000000, A.D. 2026-Mar-07 00:00:00.0000, 3.154321393004689E+08, -3.341561579511085E+07, 2.851236996647879E+07,
2461113.500000000, A.D. 2026-Mar-14 00:00:00.0000, 3.121097545473632E+08, -2.298229311095897E+07, 2.868562152691199E+07,
2461120.500000000, A.D. 2026-Mar-21 00:00:00.0000, 3.082991746702014E+08, -1.251316681874026E+07, 2.881399609052038E+07,
2461127.500000000, A.D. 2026-Mar-28 00:00:00.0000, 3.039856650860583E+08, -2.023784419983141E+06, 2.889535807055519E+07,
2461134.500000000, A.D. 2026-Apr-04 00:00:00.0000, 2.991538508571329E+08, 8.468878127524937E+06, 2.892744365187826E+07,
2461141.500000000, A.D. 2026-Apr-11 00:00:00.0000, 2.937877077701501E+08, 1.894622781857752E+07, 2.890785108565839E+07,
2461148.500000000, A.D. 2026-Apr-18 00:00:00.0000, 2.878705624091155E+08, 2.938783911018420E+07, 2.883403058899802E+07,
2461155.500000000, A.D. 2026-Apr-25 00:00:00.0000, 2.813851047040608E+08, 3.977120746560960E+07, 2.870327398155433E+07,
2461162.500000000, A.D. 2026-May-02 00:00:00.0000, 2.743134175104914E+08, 5.007146727172532E+07, 2.851270426667301E+07,
2461169.500000000, A.D. 2026-May-09 00:00:00.0000, 2.666370292886082E+08, 6.026106886393246E+07, 2.825926546156611E+07,
2461176.500000000, A.D. 2026-May-16 00:00:00.0000, 2.583369980526341E+08, 7.030940904901502E+07, 2.793971312322102E+07,
2461183.500000000, A.D. 2026-May-23 00:00:00.0000, 2.493940368210197E+08, 8.018240995030043E+07, 2.755060632035980E+07,
2461190.500000000, A.D. 2026-May-30 00:00:00.0000, 2.397886917795748E+08, 8.984204008566940E+07, 2.708830222498028E+07,
2461197.500000000, A.D. 2026-Jun-06 00:00:00.0000, 2.295015901821570E+08, 9.924576817332318E+07, 2.654895443359540E+07,
2461204.500000000, A.D. 2026-Jun-13 00:00:00.0000, 2.185137841275978E+08, 1.083459445000363E+08, 2.592851655834646E+07,
2461211.500000000, A.D. 2026-Jun-20 00:00:00.0000, 2.068072186785870E+08, 1.170891094969964E+08, 2.522275393047612E+07,
2461218.500000000, A.D. 2026-Jun-27 00:00:00.0000, 1.943653597386866E+08, 1.254152298938652E+08, 2.442726706656257E+07,
2461225.500000000, A.D. 2026-Jul-04 00:00:00.0000, 1.811740287509778E+08, 1.332568693239530E+08, 2.353753176473817E+07,
2461232.500000000, A.D. 2026-Jul-11 00:00:00.0000, 1.672225031078658E+08, 1.405383120884323E+08, 2.254896296881694E+07,
2461239.500000000, A.D. 2026-Jul-18 00:00:00.0000, 1.525049528248928E+08, 1.471746756775115E+08, 2.145701249572277E+07,
2461246.500000000, A.D. 2026-Jul-25 00:00:00.0000, 1.370222938214414E+08, 1.530710730776621E+08, 2.025731103116137E+07,
2461253.500000000, A.D. 2026-Aug-01 00:00:00.0000, 1.207845475345774E+08, 1.581219287247955E+08, 1.894586206638982E+07,
2461260.500000000, A.D. 2026-Aug-08 00:00:00.0000, 1.038138009270589E+08, 1.622106125079184E+08, 1.751930252629172E+07,
2461267.500000000, A.D. 2026-Aug-15 00:00:00.0000, 8.614783823001273E+07, 1.652096265261868E+08, 1.597525419693229E+07,
2461274.500000000, A.D. 2026-Aug-22 00:00:00.0000, 6.784445462560992E+07, 1.669816697740478E+08, 1.431278460493249E+07,
2461281.500000000, A.D. 2026-Aug-29 00:00:00.0000, 4.898635024828427E+07, 1.673820076903434E+08, 1.253298607999894E+07,
2461288.500000000, A.D. 2026-Sep-05 00:00:00.0000, 2.968631671654220E+07, 1.662626578520630E+08, 1.063966789241219E+07,
2461295.500000000, A.D. 2026-Sep-12 00:00:00.0000, 1.009213847449006E+07, 1.634789240866511E+08, 8.640130816774853E+06,
$$EOE